{
  "type": "FeatureCollection",
  "features": [
    {
      "type": "Feature",
      "properties": {
        "norad_id": 37836,
        "name": "EUTELSAT 16A",
        "group": "eutelsat",
        "lat": -0.025859089582553004,
        "lon": -154.2076253346046,
        "alt_km": 35773.642572600154,
        "timestamp": "2025-12-15T07:02:37.285666+00:00",
        "meta_object_name": "EUTELSAT 16A",
        "meta_object_id": "2011-057A",
        "meta_epoch": "2025-12-14T22:03:19.070208",
        "meta_mean_motion": 1.00273192,
        "meta_eccentricity": 0.00060905,
        "meta_inclination": 0.0613,
        "meta_ra_of_asc_node": 15.4541,
        "meta_arg_of_pericenter": 252.6963,
        "meta_mean_anomaly": 162.5176,
        "meta_ephemeris_type": 0,
        "meta_classification_type": "U",
        "meta_norad_cat_id": 37836,
        "meta_element_set_no": 999,
        "meta_rev_at_epoch": 548,
        "meta_bstar": 0,
        "meta_mean_motion_dot": 1.24e-06,
        "meta_mean_motion_ddot": 0,
        "tle_line1": "1 37836U 11057A   25348.91897072  .00000124  00000+0  00000+0 0  9991",
        "tle_line2": "2 37836   0.0613  15.4541 0006090 252.6963 162.5176  1.00273192  5487"
      },
      "geometry": {
        "type": "Point",
        "coordinates": [
          -154.2076253346046,
          -0.025859089582553004
        ]
      }
    },
    {
      "type": "Feature",
      "properties": {
        "norad_id": 38992,
        "name": "EUTELSAT 21B",
        "group": "eutelsat",
        "lat": -0.04038186741433983,
        "lon": -148.58188059471001,
        "alt_km": 35778.886093555244,
        "timestamp": "2025-12-15T07:02:37.285678+00:00",
        "meta_object_name": "EUTELSAT 21B",
        "meta_object_id": "2012-062B",
        "meta_epoch": "2025-12-14T22:04:56.413632",
        "meta_mean_motion": 1.0027346,
        "meta_eccentricity": 0.00034235,
        "meta_inclination": 0.0682,
        "meta_ra_of_asc_node": 10.9755,
        "meta_arg_of_pericenter": 263.0985,
        "meta_mean_anomaly": 162.599,
        "meta_ephemeris_type": 0,
        "meta_classification_type": "U",
        "meta_norad_cat_id": 38992,
        "meta_element_set_no": 999,
        "meta_rev_at_epoch": 4798,
        "meta_bstar": 0,
        "meta_mean_motion_dot": 1.5e-06,
        "meta_mean_motion_ddot": 0,
        "tle_line1": "1 38992U 12062B   25348.92009738  .00000150  00000+0  00000+0 0  9996",
        "tle_line2": "2 38992   0.0682  10.9755 0003423 263.0985 162.5990  1.00273460 47984"
      },
      "geometry": {
        "type": "Point",
        "coordinates": [
          -148.58188059471001,
          -0.04038186741433983
        ]
      }
    },
    {
      "type": "Feature",
      "properties": {
        "norad_id": 39020,
        "name": "EUTELSAT 70B",
        "group": "eutelsat",
        "lat": -0.08273546779256855,
        "lon": -99.64259749164309,
        "alt_km": 35768.461774336254,
        "timestamp": "2025-12-15T07:02:37.285690+00:00",
        "meta_object_name": "EUTELSAT 70B",
        "meta_object_id": "2012-069A",
        "meta_epoch": "2025-12-14T22:18:47.587680",
        "meta_mean_motion": 1.00270952,
        "meta_eccentricity": 0.00043027,
        "meta_inclination": 0.0613,
        "meta_ra_of_asc_node": 350.8642,
        "meta_arg_of_pericenter": 257.9707,
        "meta_mean_anomaly": 240.209,
        "meta_ephemeris_type": 0,
        "meta_classification_type": "U",
        "meta_norad_cat_id": 39020,
        "meta_element_set_no": 999,
        "meta_rev_at_epoch": 4766,
        "meta_bstar": 0,
        "meta_mean_motion_dot": -2.3e-07,
        "meta_mean_motion_ddot": 0,
        "tle_line1": "1 39020U 12069A   25348.92971745 -.00000023  00000+0  00000+0 0  9992",
        "tle_line2": "2 39020   0.0613 350.8642 0004302 257.9707 240.2090  1.00270952 47666"
      },
      "geometry": {
        "type": "Point",
        "coordinates": [
          -99.64259749164309,
          -0.08273546779256855
        ]
      }
    },
    {
      "type": "Feature",
      "properties": {
        "norad_id": 39122,
        "name": "EUTELSAT 117 WEST A",
        "group": "eutelsat",
        "lat": 0.030404710785685667,
        "lon": 73.04777119962436,
        "alt_km": 35797.488546625886,
        "timestamp": "2025-12-15T07:02:37.285702+00:00",
        "meta_object_name": "EUTELSAT 117 WEST A",
        "meta_object_id": "2013-012A",
        "meta_epoch": "2025-12-14T21:25:15.215808",
        "meta_mean_motion": 1.00272234,
        "meta_eccentricity": 0.00028179,
        "meta_inclination": 0.0198,
        "meta_ra_of_asc_node": 29.1225,
        "meta_arg_of_pericenter": 238.4725,
        "meta_mean_anomaly": 20.7175,
        "meta_ephemeris_type": 0,
        "meta_classification_type": "U",
        "meta_norad_cat_id": 39122,
        "meta_element_set_no": 999,
        "meta_rev_at_epoch": 4658,
        "meta_bstar": 0,
        "meta_mean_motion_dot": 7e-08,
        "meta_mean_motion_ddot": 0,
        "tle_line1": "1 39122U 13012A   25348.89253722  .00000007  00000+0  00000+0 0  9999",
        "tle_line2": "2 39122   0.0198  29.1225 0002817 238.4725  20.7175  1.00272234 46583"
      },
      "geometry": {
        "type": "Point",
        "coordinates": [
          73.04777119962436,
          0.030404710785685667
        ]
      }
    },
    {
      "type": "Feature",
      "properties": {
        "norad_id": 39163,
        "name": "EUTELSAT 7B",
        "group": "eutelsat",
        "lat": -0.0018288721501926552,
        "lon": -163.18788865648008,
        "alt_km": 35796.110132990565,
        "timestamp": "2025-12-15T07:02:37.285715+00:00",
        "meta_object_name": "EUTELSAT 7B",
        "meta_object_id": "2013-022A",
        "meta_epoch": "2025-12-14T22:09:38.644416",
        "meta_mean_motion": 1.00273897,
        "meta_eccentricity": 0.00046765,
        "meta_inclination": 0.0764,
        "meta_ra_of_asc_node": 25.1173,
        "meta_arg_of_pericenter": 294.6964,
        "meta_mean_anomaly": 103.4419,
        "meta_ephemeris_type": 0,
        "meta_classification_type": "U",
        "meta_norad_cat_id": 39163,
        "meta_element_set_no": 999,
        "meta_rev_at_epoch": 4610,
        "meta_bstar": 0,
        "meta_mean_motion_dot": 6.8e-07,
        "meta_mean_motion_ddot": 0,
        "tle_line1": "1 39163U 13022A   25348.92336394  .00000068  00000+0  00000+0 0  9993",
        "tle_line2": "2 39163   0.0764  25.1173 0004676 294.6964 103.4419  1.00273897 46103"
      },
      "geometry": {
        "type": "Point",
        "coordinates": [
          -163.18788865648008,
          -0.0018288721501926552
        ]
      }
    },
    {
      "type": "Feature",
      "properties": {
        "norad_id": 39612,
        "name": "EXPRESS-AT1",
        "group": "eutelsat",
        "lat": -0.041190731521346335,
        "lon": -114.15451204485596,
        "alt_km": 35786.227668136635,
        "timestamp": "2025-12-15T07:02:37.285727+00:00",
        "meta_object_name": "EXPRESS-AT1",
        "meta_object_id": "2014-010A",
        "meta_epoch": "2025-12-14T10:15:41.842368",
        "meta_mean_motion": 1.00273481,
        "meta_eccentricity": 3.134e-05,
        "meta_inclination": 0.0196,
        "meta_ra_of_asc_node": 344.8805,
        "meta_arg_of_pericenter": 139.4475,
        "meta_mean_anomaly": 168.9348,
        "meta_ephemeris_type": 0,
        "meta_classification_type": "U",
        "meta_norad_cat_id": 39612,
        "meta_element_set_no": 999,
        "meta_rev_at_epoch": 4296,
        "meta_bstar": 0,
        "meta_mean_motion_dot": 0,
        "meta_mean_motion_ddot": 0,
        "tle_line1": "1 39612U 14010A   25348.42756762  .00000000  00000+0  00000+0 0  9996",
        "tle_line2": "2 39612   0.0196 344.8805 0000313 139.4475 168.9348  1.00273481 42967"
      },
      "geometry": {
        "type": "Point",
        "coordinates": [
          -114.15451204485596,
          -0.041190731521346335
        ]
      }
    },
    {
      "type": "Feature",
      "properties": {
        "norad_id": 39613,
        "name": "EXPRESS-AT2",
        "group": "eutelsat",
        "lat": 0.0019497687115377328,
        "lon": -30.304668796116285,
        "alt_km": 35781.866153848714,
        "timestamp": "2025-12-15T07:02:37.285743+00:00",
        "meta_object_name": "EXPRESS-AT2",
        "meta_object_id": "2014-010B",
        "meta_epoch": "2025-12-14T03:48:30.188736",
        "meta_mean_motion": 1.0027039,
        "meta_eccentricity": 0.00013149,
        "meta_inclination": 0.0172,
        "meta_ra_of_asc_node": 322.2953,
        "meta_arg_of_pericenter": 336.2358,
        "meta_mean_anomaly": 341.5254,
        "meta_ephemeris_type": 0,
        "meta_classification_type": "U",
        "meta_norad_cat_id": 39613,
        "meta_element_set_no": 999,
        "meta_rev_at_epoch": 4264,
        "meta_bstar": 0,
        "meta_mean_motion_dot": -2.64e-06,
        "meta_mean_motion_ddot": 0,
        "tle_line1": "1 39613U 14010B   25348.15868274 -.00000264  00000+0  00000+0 0  9992",
        "tle_line2": "2 39613   0.0172 322.2953 0001314 336.2358 341.5254  1.00270390 42641"
      },
      "geometry": {
        "type": "Point",
        "coordinates": [
          -30.304668796116285,
          0.0019497687115377328
        ]
      }
    }
  ]
}